{"type": "FeatureCollection", "features": [{"type": "Feature", "geometry": {"type": "LineString", "coordinates": [[-121.32332610231883, 44.0566043924246], [-121.3255837995791, 44.05664087029125], [-121.32774394513794, 44.056642993490605], [-121.33189411537226, 44.05663083521584], [-121.33686990044525, 44.05664758704906], [-121.33815540590581, 44.056585804800775], [-121.33890870375143, 44.0566503771181], [-121.34078298999725, 44.05703939273778], [-121.34324317604816, 44.05766916905276], [-121.34472529734205, 44.05778091791893], [-121.34591276194999, 44.0576497504629], [-121.34700069013269, 44.057344265108185], [-121.34907328504318, 44.05629643867828], [-121.35030111259276, 44.05558732500217], [-121.35145832946002, 44.05503624468629], [-121.35254247504936, 44.05446818590306], [-121.35387051219652, 44.05398583938542], [-121.35488577991978, 44.05369831642657]]}, "properties": {"phase": 1, "status": "Complete"}}, {"type": "Feature", "geometry": {"type": "LineString", "coordinates": [[-121.3549110386378, 44.05376814336709], [-121.355284223402, 44.054413014355745], [-121.35528992641918, 44.054815546557776], [-121.35529513358821, 44.05518307589618], [-121.35556704168727, 44.05553113696131], [-121.35576490777433, 44.05579222702568], [-121.3558416822773, 44.056071712608826], [-121.35587016881746, 44.05636905728759], [-121.35589865563824, 44.05666640191996], [-121.35590113707538, 44.05684141574126], [-121.35590634814011, 44.057208944721225], [-121.35588580151418, 44.05747164428237], [-121.35596084155429, 44.05762861995417], [-121.35613419898175, 44.057872386684025], [-121.35630780607679, 44.05813365449974], [-121.35657973330453, 44.05848171274335], [-121.35665452803445, 44.058621186531305], [-121.35675483447864, 44.05884798801008], [-121.35680436694585, 44.058917635300475], [-121.35681330997268, 44.05954768429262], [-121.3566739013449, 44.059986292660014], [-121.35667812384929, 44.060283815679426], [-121.35668135285134, 44.06051133325558], [-121.35668507865316, 44.06077385350684], [-121.35671282637503, 44.061018693314914], [-121.35681487601413, 44.06136800391384], [-121.35691593299956, 44.06164730900304], [-121.35696720726443, 44.061839465522695], [-121.3569726737283, 44.06222449497192], [-121.35685479812112, 44.062470409225604], [-121.35680898913768, 44.06266328209126], [-121.35664331508461, 44.06296205824114], [-121.35657248882035, 44.06310260602838], [-121.35647714271583, 44.06322583145364], [-121.35635802161376, 44.06338423844761], [-121.3562388998864, 44.06354264530783], [-121.35619259160671, 44.06370051518249], [-121.35619432940997, 44.06382302446838], [-121.35619631547951, 44.06396303507254], [-121.35624734114569, 44.06413769038641], [-121.35632139722537, 44.06422466007002], [-121.35637118191583, 44.06431180870102], [-121.35647000670575, 44.06443360192742], [-121.35656883189445, 44.06455539506325], [-121.35669217763657, 44.064694510367055], [-121.35679199744267, 44.0648863085671], [-121.35686779443235, 44.06509578708135], [-121.35691857452497, 44.06525294069928], [-121.3569463252528, 44.06549777996025], [-121.35692404098748, 44.06563796956], [-121.35640023533486, 44.066359462413985], [-121.35621077311522, 44.06669341904901], [-121.35604533326658, 44.067009695098484], [-121.3558793953217, 44.067290968267926], [-121.35568868666059, 44.06753741742298], [-121.35549748029743, 44.067748863643985], [-121.3554261496436, 44.06785440783429]]}, "properties": {"phase": 1, "status": "Complete"}}, {"type": "Feature", "geometry": {"type": "LineString", "coordinates": [[-121.35525623842962, 44.06785565928832], [-121.35447727137027, 44.06770386537094], [-121.35389150111033, 44.06748063336504], [-121.35350115500528, 44.06734347791112], [-121.35320814918444, 44.067223109149595], [-121.35296393733726, 44.06711988439471], [-121.35269545362416, 44.067016837350984], [-121.352524308676, 44.06693057826913], [-121.35228009918193, 44.066827352063974], [-121.35203564345895, 44.06670662402937], [-121.35186474734752, 44.066637865276746], [-121.35154772263338, 44.066535171655424], [-121.35132778887943, 44.06643176544184], [-121.35103528536354, 44.06634639378577], [-121.3506694721327, 44.06622655218717], [-121.3502553622149, 44.06612456619411], [-121.34993858938824, 44.06603936948008], [-121.34962206381708, 44.065971673221576], [-121.3493776168762, 44.06585093955045], [-121.3491326784764, 44.065695202708255], [-121.34883821257432, 44.065469814881496], [-121.3487394014876, 44.06534801522524], [-121.34854325678032, 44.065209423625866], [-121.34832333300419, 44.065106011666344], [-121.34798180457383, 44.06498598422627], [-121.3477133388583, 44.06488292557603], [-121.3472992431536, 44.064780928988554], [-121.34695796418254, 44.064678399859226], [-121.34651959941928, 44.06457657750953], [-121.34605720975797, 44.06449243168481], [-121.34559433101164, 44.06437328133138], [-121.34510742752535, 44.064271807116306], [-121.34481518823524, 44.06420392106739], [-121.34432877706278, 44.064137446274096], [-121.34401202303032, 44.06405223332942], [-121.34357366778424, 44.0639503998369], [-121.34325716030655, 44.06388268617802], [-121.34281880756525, 44.063780849829925], [-121.34238070055544, 44.06369651317795], [-121.34216128122664, 44.06362809219831], [-121.34189331970963, 44.063560022752384], [-121.3403797239908, 44.06294087411776], [-121.3393544968049, 44.06252821427638], [-121.33896445901873, 44.062408511067126], [-121.33869650652078, 44.062340434212715], [-121.3383322005037, 44.06232556180291], [-121.33794362381398, 44.06231086339784], [-121.33757956101564, 44.06231349000117], [-121.33711768659612, 44.06226431126639], [-121.33175358727965, 44.06228535490271], [-121.32454633114881, 44.0624242720448], [-121.31743422982672, 44.06242204721271], [-121.31706969165892, 44.06238960669797], [-121.31692311853017, 44.062320625646066], [-121.31663044683852, 44.06221766581333], [-121.31633777614525, 44.06211470523877], [-121.31614289954297, 44.06206356586165], [-121.31589900854487, 44.06197776440523], [-121.31572816699988, 44.06190895236928], [-121.31555708937645, 44.061822638659166], [-121.31536150514576, 44.061718993700346], [-121.31484756814922, 44.06140754588781], [-121.31460273688626, 44.061251735980235], [-121.31438241344267, 44.0611132567562], [-121.31406453741336, 44.0609404549061], [-121.31386919457823, 44.06085430882717], [-121.31355202902773, 44.060734009854194], [-121.31323486474139, 44.06061371000915], [-121.31289366721656, 44.06051108064142], [-121.31265002272902, 44.06044277374459], [-121.31252843627618, 44.06042612154151], [-121.3123335683525, 44.060374975738014], [-121.31204114936489, 44.06028950569795], [-121.31196716191893, 44.06020250767165], [-121.3117470837073, 44.06008152482924], [-121.31160052226538, 44.06001253699436], [-121.31138138647961, 44.059961559222565], [-121.31111418148102, 44.05994592301223], [-121.31108991150302, 44.059946092548444], [-121.30706109327156, 44.059974165258495]]}, "properties": {"phase": 1, "status": "Complete"}}, {"type": "Feature", "geometry": {"type": "LineString", "coordinates": [[-121.32457155842026, 44.06249410529215], [-121.32467055517867, 44.06263342703193], [-121.32472005372921, 44.06270308786701], [-121.32479478006934, 44.06284258186696], [-121.3248454747605, 44.062999749614306], [-121.32484858392353, 44.06322726772432], [-121.32482861757214, 44.06354246516761], [-121.32478832796087, 44.06592317010187], [-121.32481618783187, 44.06618551825456], [-121.32486688538634, 44.06634268575761], [-121.32494137736457, 44.06646467807061], [-121.3250399030165, 44.06656899651915], [-121.3251874528536, 44.06670797266233], [-121.32543161551769, 44.06681125580863], [-121.3255779698813, 44.06686272463065], [-121.32579738216617, 44.06693117683533], [-121.32606486142254, 44.066964280590526], [-121.32647773793606, 44.06697884597577], [-121.32676901107332, 44.06697677264014], [-121.3269872261109, 44.06695771580042], [-121.32727849912871, 44.06695564118704], [-121.3276187975947, 44.06698822259632], [-121.32788675822924, 44.06705632486944], [-121.32803311528059, 44.06710779059344], [-121.32817995287915, 44.06719425884131], [-121.32832679089843, 44.067280726900364], [-121.32849862297721, 44.067419525660625], [-121.32859787715014, 44.06757634510319], [-121.32869713183885, 44.067733164450075], [-121.32877259456835, 44.067925159626135], [-121.32879254191575, 44.06937777100224], [-121.328795425949, 44.069587787025796], [-121.32887065095044, 44.069762280645804], [-121.32894635715098, 44.0699717768661], [-121.32902206387712, 44.07018127301749], [-121.32907421826474, 44.07044344637371], [-121.32907758417502, 44.07068846494046], [-121.32908095011263, 44.070933483480005], [-121.32908431607754, 44.07117850199235], [-121.32908840335735, 44.07147602443505], [-121.32909176938274, 44.07172104288714], [-121.32911844843565, 44.07189588275503], [-121.32919415817265, 44.07210537861361], [-121.32924511257845, 44.07228004510592], [-121.32936817060475, 44.07240168760161], [-121.32951646634137, 44.07259316182054], [-121.32976114148128, 44.07273143822288], [-121.32998130192703, 44.07285238627613], [-121.33017718809263, 44.07297350742748], [-121.33032476541702, 44.07311247665564], [-121.3304480681474, 44.07325161926599], [-121.33057137144635, 44.073390761736974], [-121.33064540187638, 44.07347774741269], [-121.3307941861749, 44.0737042225074]]}, "properties": {"phase": 1, "status": "Complete"}}, {"type": "Feature", "geometry": {"type": "LineString", "coordinates": [[-121.35172543477603, 44.075687983866636], [-121.35157780187825, 44.075549041966774], [-121.3515768140093, 44.07547903699498], [-121.35157483827828, 44.07533902704469], [-121.35152455751582, 44.075216874300104], [-121.35149929373932, 44.075147047294166], [-121.35147378308588, 44.07505971903388], [-121.35137569169805, 44.0749904258803], [-121.35127784741344, 44.07493863389001], [-121.35113145155434, 44.07488719762126], [-121.35088819930381, 44.0748539738436], [-121.35059639562868, 44.07482110513771], [-121.35025628718432, 44.07480609238903], [-121.3498921495484, 44.074808757537504], [-121.34974698735218, 44.07484482578134], [-121.34938284946006, 44.07484748933318], [-121.3490429873984, 44.074849974285044], [-121.34896991360174, 44.074833005391916], [-121.34887281017689, 44.07483371513446], [-121.34815832848057, 44.07063819857675], [-121.34797709772597, 44.06983437996907], [-121.34792609117632, 44.06965972148007], [-121.34780226379685, 44.069485594587555], [-121.34777700672572, 44.069415766594425], [-121.34765318027685, 44.069241639524265], [-121.34752935454244, 44.069067512308735], [-121.34745530518994, 44.06898053721254], [-121.34733197197971, 44.06884141237469], [-121.34723364977285, 44.06875461423119], [-121.3470620164433, 44.06863334455826], [-121.34691514829662, 44.06854690022479], [-121.34671924291223, 44.068425807050154], [-121.34654810251021, 44.068339539219664], [-121.34632767991681, 44.06820112100218], [-121.34605871205149, 44.068063056046945], [-121.34578999067479, 44.067942491775206], [-121.34554603379166, 44.06785675277737], [-121.3452532864468, 44.06775386529967], [-121.34513094108176, 44.06768474332198], [-121.34424487281534, 44.066816033134295], [-121.34404824416185, 44.06664243138352], [-121.34375526059725, 44.06652203874916], [-121.34338897164616, 44.06636717157568], [-121.34314453557205, 44.066246424813315], [-121.3427294607803, 44.066074406659546], [-121.34255857706118, 44.066005634201076], [-121.33981815914119, 44.06445020526435], [-121.33866644572211, 44.0636708887117], [-121.33844387025883, 44.06337494298718], [-121.33814726838415, 44.06299201554365], [-121.33794775416082, 44.06260838673629], [-121.33789556800228, 44.062346216425496]]}, "properties": {"phase": 1, "status": "Complete"}}, {"type": "Feature", "geometry": {"type": "LineString", "coordinates": [[-121.3500963487964, 44.077240186564865], [-121.35002105310322, 44.07706570725328], [-121.34980108358776, 44.07696229862393], [-121.3495813612201, 44.07687639080976], [-121.34938665513157, 44.076842808758215], [-121.34921622590993, 44.07680904888574], [-121.34887561422741, 44.07675902962793], [-121.34870469325003, 44.076690266526334], [-121.34848472735872, 44.076586855388584], [-121.34804479783764, 44.076380031850114], [-121.34780031189278, 44.0762592954085], [-121.34753105894808, 44.07610373310127], [-121.34723753108192, 44.07594834724564], [-121.34696778971201, 44.07575778111345], [-121.34674684792785, 44.07558436163949], [-121.34654969249138, 44.07537576228718], [-121.34640133587838, 44.07518431002947], [-121.34627627442354, 44.07492267565424], [-121.34612767440805, 44.074713721749], [-121.34597956610119, 44.0745397701582], [-121.34580620181497, 44.07429599009775], [-121.34556123835694, 44.07414024630584], [-121.34502668527837, 44.07410913068428], [-121.34471110277411, 44.074111426340735], [-121.34444529587202, 44.07420087448869], [-121.34422803948509, 44.074289969124585], [-121.34403530291998, 44.074396388204974], [-121.3438190240767, 44.07455548713023], [-121.34365202973788, 44.074766736776546], [-121.34355761738088, 44.07495995597745], [-121.34343868381288, 44.07513585011487], [-121.34331974955155, 44.07531174411616], [-121.3431765384607, 44.07548781421879], [-121.3429600089732, 44.075629410204556], [-121.34271944661755, 44.0757886831773], [-121.34247863866175, 44.07593045438222], [-121.34226137314495, 44.076019545265765], [-121.34194651307469, 44.076074337176074], [-121.34163140834724, 44.07611162697358], [-121.34138888843759, 44.07613088709665], [-121.34104804315568, 44.076063343619346], [-121.34080430402705, 44.07599509622471], [-121.34031658372055, 44.07584109863321], [-121.33995000343651, 44.07566871998015], [-121.33965625369669, 44.07549581368289], [-121.33936250564005, 44.07532290663009], [-121.339191112822, 44.07521912695544], [-121.33835697462668, 44.07459504183923], [-121.33641953868239, 44.07319126488876], [-121.33605153089611, 44.07291386598244], [-121.33551578209207, 44.07279520011181], [-121.33488414585072, 44.07276473630499], [-121.33464139519295, 44.07276648107862], [-121.3340100015552, 44.07275351381661], [-121.33364635910553, 44.07279113064648], [-121.33321037417582, 44.07286427141874], [-121.33272583790784, 44.07293775866513], [-121.33233815976828, 44.07299304674473], [-121.33199975513317, 44.07310048964157], [-121.33173465745784, 44.073242412636645], [-121.33151810918369, 44.07338398742893], [-121.33115638967695, 44.0735616068369], [-121.33093911597605, 44.07365067663558], [-121.3306494970077, 44.073775269494824], [-121.33040794626925, 44.07386451190557], [-121.33011712148944, 44.07390159694018], [-121.32989888233296, 44.073920659588794], [-121.32972895351874, 44.073921873688725], [-121.32958233791443, 44.0738529089522], [-121.32943596318457, 44.07380144532862], [-121.32894828961867, 44.073647399878894], [-121.32858295658731, 44.07356249172301], [-121.32834020253924, 44.07356422332636], [-121.32804841739083, 44.07353129797155], [-121.32761386039252, 44.07370942553016], [-121.3274939229163, 44.073815298206206], [-121.32737350513564, 44.073886168147], [-121.32718098003006, 44.074010060569194], [-121.32710911272706, 44.07408058443398], [-121.32698869396516, 44.07415145396689], [-121.32679520812118, 44.07420534052955], [-121.32643179209798, 44.0742604360445], [-121.32616571786014, 44.07433234104229], [-121.32590012202122, 44.074439248031624], [-121.32575542533056, 44.074510288895816], [-121.32553861906838, 44.07463435115042], [-121.32544367015662, 44.07479255301001], [-121.32534872074706, 44.07495075478044], [-121.32530328029557, 44.07517861666137], [-121.32528211565626, 44.07540630600797], [-121.3252611901933, 44.075651496620516], [-121.32531213621, 44.07582616455348], [-121.32533976356859, 44.0760710101204], [-121.32534263590564, 44.076281025588095], [-121.32532099231439, 44.076473712254966], [-121.32525007724962, 44.076614240031674], [-121.32515560308626, 44.076807444080536], [-121.32515727826033, 44.076929953067385], [-121.32515967137799, 44.07710496589388], [-121.3252108576558, 44.07729713503708], [-121.32521253295566, 44.077419643995995], [-121.32523968196378, 44.077629486854796], [-121.32521899489014, 44.0778921784877], [-121.32509976279512, 44.07805055230864], [-121.32507596415942, 44.078085727311596], [-121.32396470756862, 44.0784961840374], [-121.32311786312407, 44.07871222389093], [-121.32294911407007, 44.078800934427505], [-121.32253902023346, 44.078996371812146], [-121.32227435137663, 44.07917327535569], [-121.32215534747232, 44.0793491473272], [-121.32208513694727, 44.079542176788884], [-121.32208847498701, 44.07978719453402], [-121.32211728328751, 44.080119546742736], [-121.32207301889225, 44.08043491312606], [-121.3220032836625, 44.08066294496173], [-121.32190974630416, 44.080926151039144], [-121.32157247005352, 44.081121069424455], [-121.32118520547662, 44.08121132255922], [-121.32057943287853, 44.081303118203685]]}, "properties": {"phase": 1, "status": "Complete"}}, {"type": "Feature", "geometry": {"type": "LineString", "coordinates": [[-121.35530776070283, 44.068065317298505], [-121.35350557283509, 44.07108911053367], [-121.35339234609843, 44.073382846568165], [-121.35117991866962, 44.076602141430826], [-121.35093986770677, 44.076796433831475], [-121.35069956847948, 44.076973224485194], [-121.3504590211947, 44.077132513394744], [-121.35012111872128, 44.07727501134581], [-121.34956496899889, 44.07743660786569], [-121.34913069366954, 44.07763231684287], [-121.34884207789011, 44.077826959759676], [-121.34848136706765, 44.07807463767914], [-121.34816920780816, 44.07832195990446], [-121.34582364295798, 44.080736976208904], [-121.34568263381479, 44.08107055986196], [-121.34566178928014, 44.081315753550236], [-121.34566522314832, 44.0815607704565], [-121.34571647850612, 44.08175293020294], [-121.34574247425876, 44.081875261867545], [-121.34590311264834, 44.08294177432393], [-121.34583444591003, 44.08323982500869], [-121.34576577849336, 44.08353787561213], [-121.34564757029734, 44.08376627488759], [-121.34519116351399, 44.08411965597484], [-121.34463665243366, 44.08440373665867], [-121.3429034260501, 44.085484006503336], [-121.34063523288563, 44.086515613048384], [-121.33853960475734, 44.08773846097301], [-121.33803553621651, 44.08816216846237], [-121.33784371656012, 44.08833858124267], [-121.3376035759612, 44.088532845001936], [-121.33738722948537, 44.08869193089627], [-121.33709755163312, 44.08881653895074], [-121.33680762984633, 44.08892364511019], [-121.33644413431672, 44.08897877154086], [-121.33622560005506, 44.08898034475425], [-121.3359096969571, 44.08896511528135], [-121.33569067790273, 44.08893168515518], [-121.33544689285031, 44.08886342689795], [-121.33520213926259, 44.08872516344876], [-121.33507976288934, 44.08865603152774], [-121.33490785519295, 44.088517243805526], [-121.3347602296347, 44.08837828135051], [-121.3346366439426, 44.08822164308012], [-121.3344644964482, 44.08806535349926], [-121.33434115418324, 44.08792621607068], [-121.3341697342016, 44.08782242956981], [-121.33399904056499, 44.08777114635177], [-121.33377978504839, 44.087720211427786], [-121.33329392160208, 44.08770619458872], [-121.33283475526443, 44.08786701347165], [-121.33254483047351, 44.08797410903962], [-121.33235202959183, 44.08808050804137], [-121.33211042410196, 44.088169753385436], [-121.33182001399341, 44.08824184476943], [-121.33150508066277, 44.08829660803933], [-121.33114230734381, 44.088404221438665], [-121.33089997570046, 44.08844096071153], [-121.3305852814268, 44.08851322266249], [-121.33027082723986, 44.08860298493892], [-121.33005349806663, 44.088692052445204], [-121.3297878459056, 44.088798967597725], [-121.32952219280308, 44.08890588213723], [-121.32915965280418, 44.08903099049145], [-121.3288682732818, 44.08903306975029], [-121.32864973862684, 44.08903462871491], [-121.32838216011095, 44.08900153119633], [-121.32821098756928, 44.088915237140796], [-121.32784508285361, 44.08879532484499], [-121.32513211965163, 44.087519411276844], [-121.32481550924386, 44.08745164803834], [-121.32398732591741, 44.08726499329487], [-121.32327935796735, 44.08698996629612], [-121.32259448415161, 44.08662725697025], [-121.32220265439896, 44.086384990233434], [-121.32183296282726, 44.08598503942734], [-121.32165394330431, 44.08532119532185], [-121.32133113447551, 44.08301309300644], [-121.32110785821467, 44.08266461292785], [-121.32100788430076, 44.08245528441337], [-121.32085935324149, 44.08224629894199], [-121.3207343879013, 44.08198463796618], [-121.32063465442803, 44.081792810320124], [-121.32053468359993, 44.081583481316855], [-121.32050635927564, 44.08128613145641], [-121.32047922508245, 44.08107628784746], [-121.32057324490705, 44.08084808546518], [-121.32081673813043, 44.07911357307622], [-121.3210309508447, 44.07879700586667], [-121.32114948062616, 44.07858613244841], [-121.3213653572393, 44.0783920735042], [-121.32160503318104, 44.07816283985685], [-121.32179710630041, 44.078003954359055], [-121.3219887016168, 44.077810065967135], [-121.32213150315941, 44.07759901964087], [-121.32227382674984, 44.07735297054761], [-121.32231975725516, 44.077160112656905], [-121.3223647334614, 44.07689724957634], [-121.32238328606948, 44.07647704671433], [-121.32225880300338, 44.07625038928342], [-121.32213455930321, 44.076041232992495], [-121.32191344948578, 44.075850265053084], [-121.32149622497063, 44.07552066006785], [-121.32132486231845, 44.07541685405927], [-121.3208605202816, 44.07519259788546], [-121.32054326544255, 44.07507231874042], [-121.32015318390677, 44.07495255301685], [-121.3197640548742, 44.074902791217774], [-121.31942347838208, 44.07485268558211], [-121.31896223532189, 44.07485593881948], [-121.3184522029444, 44.074842031059504], [-121.31808806371346, 44.07484459651241], [-121.31769917421971, 44.07481232910882], [-121.31696805288708, 44.07460743835346], [-121.31626026541205, 44.07433236708936], [-121.31550487911052, 44.07412763769347], [-121.31528568877506, 44.07407666758678], [-121.31489775102604, 44.07411439609564], [-121.31467927003493, 44.07411592882088], [-121.31436439487173, 44.074170646009954], [-121.3139279045315, 44.074208711695945], [-121.31349164955815, 44.07426427706766], [-121.31308014113114, 44.074354673510015], [-121.31283856209852, 44.07444387934807], [-121.31252439046936, 44.07455109551741], [-121.31211429175544, 44.074746496475434], [-121.31182509954498, 44.07490604496427], [-121.31146378363118, 44.07511860553852], [-121.31112744704559, 44.07538349940017], [-121.31088821268105, 44.07564771434611], [-121.31074561156568, 44.0758762483392], [-121.31072415663544, 44.076086433614236], [-121.31072768348213, 44.07634895336119], [-121.31080357010832, 44.076575962064545], [-121.31090490994974, 44.076890307763236], [-121.31095746181428, 44.077187491033925], [-121.31100860293623, 44.077379666403274], [-121.31103570253538, 44.07758951255866], [-121.31094235729842, 44.077870211453394], [-121.31072785982144, 44.07816925886681], [-121.31051241993873, 44.078398300645446], [-121.31017559095167, 44.0786281887513], [-121.30976616149007, 44.078876084931146], [-121.30930723438067, 44.079054312775696], [-121.30904182254469, 44.07917868226107], [-121.30748781406895, 44.07917199300377], [-121.3067587804425, 44.07912455009141], [-121.30600593780669, 44.079112273677126], [-121.30552225277047, 44.07925565240558], [-121.30474559779499, 44.07927853879045]]}, "properties": {"phase": 1, "status": "Complete"}}, {"type": "Feature", "geometry": {"type": "LineString", "coordinates": [[-121.33148200529229, 44.08838428773033], [-121.33148441720941, 44.08855929952218], [-121.33148538198022, 44.08862930423499], [-121.33134138129006, 44.08875285511646], [-121.33117285734883, 44.088859078360954], [-121.33078724441083, 44.089071871394765], [-121.33006481478161, 44.0895146077589], [-121.32912552015584, 44.0900814075901], [-121.32811023815624, 44.090421203744874], [-121.32620129185696, 44.09111740708128], [-121.32475295615636, 44.09175780100222], [-121.32446539001947, 44.09203988784568], [-121.32429875776972, 44.092286110251415], [-121.32403547005538, 44.09256802367261], [-121.32381883434991, 44.09270958282364], [-121.32333532149134, 44.09287053594946], [-121.32294870033424, 44.093013297919526], [-121.3225135107369, 44.09315640242716], [-121.32219949737662, 44.09328114496756], [-121.32193476485739, 44.093458046553614], [-121.32183930004099, 44.093581241778054], [-121.32172002806729, 44.09373961097719], [-121.32150481263427, 44.09398617265851], [-121.32138506241199, 44.094109539177516], [-121.32119246047253, 44.09423342049567], [-121.32095057567625, 44.09430514121028], [-121.32080487304036, 44.094306170629416], [-121.32060941254822, 44.094220037135656], [-121.3204139526142, 44.09413390330999], [-121.32019325781191, 44.09397793595607], [-121.32006969847164, 44.0938212826085], [-121.31987257568753, 44.09361263974149], [-121.31984496248472, 44.093367794840105], [-121.31981830081203, 44.093192954561054], [-121.31976664260301, 44.09296578210614], [-121.31973926792811, 44.09273843827494], [-121.31966308957291, 44.092493935887376], [-121.31961262136406, 44.092354269147506], [-121.31956239113758, 44.09223210354895], [-121.31944002557395, 44.09216295527328], [-121.3191729135084, 44.09216483893613], [-121.31900435861402, 44.092271044349914], [-121.31890888969215, 44.092394237231915], [-121.31871581313571, 44.09248311220065], [-121.3184008457748, 44.09253783982895], [-121.3181334946816, 44.09252221992958], [-121.31769426466057, 44.092367786486534], [-121.31737621447579, 44.09219499606677], [-121.31649326503876, 44.09155359928693], [-121.31646400856778, 44.09118624505825], [-121.31636214212173, 44.090836903854054], [-121.31626430220368, 44.09078508275309], [-121.31609337867204, 44.09071627211391], [-121.3155586939625, 44.09068502106438], [-121.31519374956393, 44.09063507380406], [-121.31465882972009, 44.090586317419806], [-121.3142698405961, 44.09055403871967], [-121.3140503554851, 44.090485565439245], [-121.31397656423484, 44.090416071061284], [-121.3138530283304, 44.09025941085944], [-121.31382614931859, 44.09006706776586], [-121.31386715866883, 44.0895066890845], [-121.31367077951487, 44.08935053892034], [-121.31345129946179, 44.08928206447304], [-121.31303827347716, 44.089267452859204], [-121.31274689226267, 44.08926949168927], [-121.30915318900021, 44.08929457717956]]}, "properties": {"phase": 1, "status": "Complete"}}, {"type": "Feature", "geometry": {"type": "LineString", "coordinates": [[-121.30930216638562, 44.08953857935764], [-121.30970664834777, 44.0907259543848], [-121.31109398898494, 44.092764108659004], [-121.31356620440177, 44.09600234763238], [-121.31365109631561, 44.09689439610286], [-121.31367257763499, 44.09848699978261], [-121.31331796991081, 44.099207096514625], [-121.31252785482171, 44.10005275741965], [-121.31155190247449, 44.10152980985213], [-121.31150827348175, 44.10189767241075], [-121.31158325329406, 44.10205467353709], [-121.31168181397304, 44.10215900163972], [-121.31195179748403, 44.10236714849539], [-121.31202607222598, 44.102471645991365], [-121.31375922259505, 44.104909906024986], [-121.31385991700391, 44.105171741861874], [-121.31398537292435, 44.1054684096086], [-121.31408606924727, 44.105730245182876], [-121.31430844520361, 44.10600873080405], [-121.31450582558809, 44.1062348829969], [-121.31480130788046, 44.106530357950504], [-121.31516965955602, 44.106825321015954], [-121.31551372588716, 44.107120453323425], [-121.3157108777379, 44.10732910229941], [-121.3158839785802, 44.10755542250218], [-121.3160820803338, 44.10783407502187], [-121.31630565759389, 44.108200061809974], [-121.31645589516405, 44.10853155796352], [-121.31658160779047, 44.10884572349982], [-121.31670637377964, 44.109089884690306]]}, "properties": {"phase": 1, "status": "Complete"}}, {"type": "Feature", "geometry": {"type": "LineString", "coordinates": [[-121.31762424019226, 44.050466072713455], [-121.31757125894188, 44.05372203403911], [-121.31752097208425, 44.05538518673472], [-121.31740768874079, 44.055981090895045], [-121.31680808377178, 44.05651040455502], [-121.31508177713161, 44.058080313642826], [-121.31254057135968, 44.06042603662379]]}, "properties": {"phase": 1, "status": "Complete"}}, {"type": "Feature", "geometry": {"type": "LineString", "coordinates": [[-121.35479960516767, 44.05361143476016], [-121.35383758556966, 44.05251580987939], [-121.35307566760008, 44.05183878446853], [-121.35200102133695, 44.051356585158146], [-121.35085852675269, 44.051224938102386], [-121.34969275612727, 44.051163463159654], [-121.34835810740316, 44.051173223670204], [-121.34728989686344, 44.0511460181477], [-121.34646238748861, 44.05097702220215], [-121.3457302313683, 44.050684803142204], [-121.34501965377561, 44.05019988681058], [-121.34445394782453, 44.049661402688514], [-121.34412894968868, 44.048981139799594], [-121.34399905913513, 44.04836947053481], [-121.34405815292791, 44.047388858677536], [-121.34404869580149, 44.043240651556], [-121.34382103295843, 44.042577181655176], [-121.34359802094576, 44.042246240010535], [-121.34330246789307, 44.04193332824651], [-121.34286012126353, 44.04153396521824], [-121.34244350788937, 44.041239433528524], [-121.34202811887087, 44.04103240796907], [-121.33737144740036, 44.03943828841474], [-121.33671177479256, 44.03911048285466], [-121.3362714314758, 44.03885110673445], [-121.3360006789118, 44.03857300426008], [-121.33521802274342, 44.03812355279691], [-121.33473207414347, 44.038074538713516], [-121.33429537395271, 44.038077678538095], [-121.33385964043403, 44.03815082300197], [-121.33354521177932, 44.038223094729624], [-121.33320627966754, 44.03827803819653], [-121.33289160816864, 44.03833280657921], [-121.33253058525243, 44.03854543629039], [-121.33231416326942, 44.03868701482335], [-121.33214674550517, 44.038863248210546], [-121.33200431171613, 44.039091812135126], [-121.33183713302321, 44.03928554660848], [-121.33164448634918, 44.03939194683845], [-121.3313792948559, 44.03951636966848], [-121.33106581962515, 44.039658640886934], [-121.33089719138493, 44.0397473645787], [-121.33077732712142, 44.039853242288366], [-121.3305856397208, 44.040029646980564], [-121.33046673716755, 44.04020553059966], [-121.33027456644228, 44.04034693163045], [-121.3300576515392, 44.04045350271999], [-121.3296946821047, 44.040526110932745], [-121.3293314714203, 44.04058121644781], [-121.32896801980117, 44.04061881926433], [-121.32860456772937, 44.0406564209422], [-121.3282658575336, 44.04072885147831], [-121.32799945324773, 44.040765758705774], [-121.3276840443619, 44.040768008221264], [-121.32736887526146, 44.04078775844235], [-121.32452732537338, 44.04059793899232], [-121.32300024004523, 44.040713796224665], [-121.32231994460395, 44.040648604726094], [-121.32188203406653, 44.04056418997619], [-121.32142081496373, 44.0405499515759], [-121.32093557187304, 44.04055338451889], [-121.32045104213626, 44.040609320165515], [-121.3200633226241, 44.04064706659457], [-121.31945700519557, 44.04066885194205], [-121.31858356567216, 44.040675015003615], [-121.31795322228686, 44.04071446517918], [-121.31737069183814, 44.040701065492264], [-121.31666401006673, 44.04047849745391]]}, "properties": {"phase": 1, "status": "Complete"}}]}